[Satellite]
VERSION=1.1
NAME=ARIANE 5 R/B
NICKNAME=ARIANE 5 R/B
TLE1=1 28499U 04049H   15054.20154670  .00000567  00000-0  78274-4 0  9999
TLE2=2 28499  98.1656 117.4165 0094281  61.0175 331.3696 14.79267273549049
